ONEWEB-0403             
1 50483U 21132Q   25297.21759260  .00000083  00000+0  17792-3 0  9995
2 50483  87.9234  22.3140 0001781  97.6618 262.4717 13.18685216190494
ONEWEB-0404             
1 50484U 21132R   25297.26930705  .00000366  00000+0  99736-3 0  9998
2 50484  87.8835  68.0549 0001509  84.8631 275.2669 13.11418336184774
ONEWEB-0405             
1 50485U 21132S   25297.30831416 -.00000005  00000+0 -45038-4 0  9992
2 50485  87.9231  22.2804 0001586 106.9158 253.2148 13.18685348190903
ONEWEB-0406             
1 50486U 21132T   25297.22254991  .00000046  00000+0  83195-4 0  9990
2 50486  87.9235  22.3216 0001947  85.1286 275.0069 13.18685794190524
ONEWEB-0407             
1 50487U 21132U   25297.21594483  .00000112  00000+0  25130-3 0  9991
2 50487  87.9233  22.3070 0001817 106.2290 253.9042 13.18684908190462
ONEWEB-0409             
1 50488U 21132V   25297.26760730  .00000330  00000+0  89406-3 0  9995
2 50488  87.8847  68.0174 0001708  87.6875 272.4448 13.11418434184668
ONEWEB-0412             
1 50489U 21132W   25297.20438474 -.00000036  00000+0 -12500-3 0  9993
2 50489  87.9232  22.3218 0001579 111.2137 248.9164 13.18685296190558
ONEWEB-0413             
1 50490U 21132X   25297.20934754  .00000069  00000+0  14193-3 0  9991
2 50490  87.9230  22.3379 0001764 112.2546 247.8774 13.18685058190491
